satname,norad_id,inclination_deg,eccentricity,mean_motion_rev_per_day,perigee_km,apogee_km,l1,l2
STARLINK-1360,45588,53.0405,0.0003698,15.85524934,312.37199252741084,317.32212353673185,1 45588U 20025BK  25337.83335647  .00184572  00000+0  73776-3 0  9997,2 45588  53.0405  33.4429 0003698   4.0307 241.6111 15.85524934  6035
STARLINK-1364,45589,53.0539,0.0001395,15.06406067,546.2268799895819,548.1590470494039,1 45589U 20025BL  25337.75164897  .00001171  00000+0  97491-4 0  9990,2 45589  53.0539 147.3041 0001395  90.5356 269.5793 15.06406067311049
STARLINK-1365,45590,53.0537,0.0001609,15.06402314,546.0901784287753,548.3187533124919,1 45590U 20025BM  25337.70097513 -.00000366  00000+0 -56501-5 0  9992,2 45590  53.0537 177.5265 0001609  88.9040 271.2134 15.06402314310635
STARLINK-1443,45660,53.0541,0.0001254,15.06410759,546.3101487749645,548.047017923268,1 45660U 20035D   25337.75256448  .00000868  00000+0  77154-4 0  9991,2 45660  53.0541 137.2990 0001254  85.7415 274.3717 15.06410759304279
STARLINK-1446,45663,53.0263,5.92e-05,15.36685345,455.51455667670507,456.3237089228278,1 45663U 20035G   25337.59190583  .00039293  00000+0  10858-2 0  9993,2 45663  53.0263  94.1246 0000592 333.1935  26.9036 15.36685345304867
STARLINK-1448,45665,53.0549,0.0001342,15.06405516,546.2652727365821,548.1240317520442,1 45665U 20035J   25337.75625279  .00001762  00000+0  13713-3 0  9992,2 45665  53.0549 137.2777 0001342  94.2126 265.9016 15.06405516304269
STARLINK-1451,45668,53.0533,0.00013,15.06403117,546.3017107280575,548.1022988693039,1 45668U 20035M   25337.75998670  .00004949  00000+0  35089-3 0  9993,2 45668  53.0533 137.5799 0001300  87.6062 272.5076 15.06403117304277
STARLINK-1452,45669,53.038,0.0008448,15.30509238,468.5029640288376,480.0808278914528,1 45669U 20035N   25337.83335647  .00143199  00000+0  47053-2 0  9996,2 45669  53.0380 113.0394 0008448 126.7160 163.1152 15.30509238  5683
STARLINK-1453,45670,53.0557,0.0001585,15.12665193,526.9813153272617,529.1705848324355,1 45670U 20035P   25337.64507120  .00022425  00000+0  12804-2 0  9998,2 45670  53.0557 107.1671 0001585  63.7291 296.3863 15.12665193304574
STARLINK-1454,45671,53.0525,0.0001131,15.06444363,546.2923535249329,547.8588366139375,1 45671U 20035Q   25337.71570149  .00011666  00000+0  79985-3 0  9997,2 45671  53.0525 137.4648 0001131  98.5842 261.5276 15.06444363304259
STARLINK-1456,45673,53.0529,0.0001261,15.06422736,546.268598582983,548.0151539155731,1 45673U 20035S   25337.66410316  .00003681  00000+0  26573-3 0  9995,2 45673  53.0529 137.6966 0001261 110.3545 249.7579 15.06422736304262
STARLINK-1457,45674,53.0511,0.0002376,15.4593656,427.01027807456467,430.2448525960108,1 45674U 20035T   25337.83335647  .00175982  00000+0  34860-2 0  9999,2 45674  53.0511 130.4592 0002376 284.6646 305.1885 15.45936560  5808
STARLINK-1458,45675,53.0546,0.0001392,15.06412631,546.2088428824054,548.136849143536,1 45675U 20035U   25337.72676176  .00001429  00000+0  11475-3 0  9995,2 45675  53.0546 137.4126 0001392  87.2945 272.8204 15.06412631304232
STARLINK-1460,45676,53.0543,0.0001641,15.06409719,546.0453259529386,548.3182155735021,1 45676U 20035V   25337.76362435 -.00001313  00000+0 -69241-4 0  9999,2 45676  53.0543 137.2455 0001641  99.6133 260.5042 15.06409719304233
STARLINK-1392,45677,53.0542,0.0001339,15.06405144,546.268490303115,548.123094424911,1 45677U 20035W   25337.77468604  .00001606  00000+0  12667-3 0  9998,2 45677  53.0542 137.2001 0001339  89.4467 270.6676 15.06405144304278
STARLINK-1394,45679,53.0543,0.0001245,15.06377081,546.419587622062,548.144016903826,1 45679U 20035Y   25337.63925112 -.00002689  00000+0 -16182-3 0  9997,2 45679  53.0543 127.8058 0001245  83.1760 276.9371 15.06377081304393
STARLINK-1402,45685,53.0512,0.0003042,15.3056327,472.0461654042756,476.21508502745746,1 45685U 20035AE  25337.75347389  .00100302  00000+0  33153-2 0  9996,2 45685  53.0512 114.8924 0003042 229.2812 130.7923 15.30563270304598
STARLINK-1404,45686,53.0557,0.0001389,15.06405147,546.2338544459135,548.1577118930791,1 45686U 20035AF  25337.73137316  .00000640  00000+0  61839-4 0  9990,2 45686  53.0557 127.3972 0001389  97.7533 262.3614 15.06405147304411
STARLINK-1413,45689,53.0551,0.0001401,15.06401225,546.2375626852845,548.1780442992231,1 45689U 20035AJ  25337.68346516  .00001106  00000+0  93119-4 0  9995,2 45689  53.0551 127.6057 0001401  87.7663 272.3487 15.06401225304314
STARLINK-1417,45693,53.0518,3.52e-05,15.07138082,544.7066734635982,545.1940588141733,1 45693U 20035AN  25337.74250446  .00053098  00000+0  34866-2 0  9992,2 45693  53.0518 127.3053 0000352 159.0730 201.0273 15.07138082304408
STARLINK-1420,45695,53.0536,0.000114,15.06437523,546.3070811091184,547.886034360281,1 45695U 20035AQ  25337.81334935  .00009918  00000+0  68311-3 0  9993,2 45695  53.0536 107.0128 0001140  93.1173 266.9947 15.06437523304705
STARLINK-1422,45696,53.0543,0.0001363,15.06405164,546.2518082159977,548.139653918487,1 45696U 20035AR  25337.69083177  .00001477  00000+0  11802-3 0  9994,2 45696  53.0543 127.5767 0001363  85.2481 274.8664 15.06405164304396
STARLINK-1351,45697,53.0551,0.0001216,15.0640271,546.3611308163736,548.0453735657065,1 45697U 20035AS  25337.66687419  .00000609  00000+0  59790-4 0  9996,2 45697  53.0551 107.6830 0001216  90.4692 269.6436 15.06402710304680
STARLINK-1398,45699,53.0496,0.0001561,15.56658372,396.2785754996012,398.3938782410314,1 45699U 20035AU  25337.49773334  .00059370  00000+0  81878-3 0  9991,2 45699  53.0496  56.8372 0001561 247.1636 112.9210 15.56658372305388
STARLINK-1400,45700,53.0556,0.0001262,15.06402444,546.3300893976948,548.0780454831156,1 45700U 20035AV  25337.57472466  .00000491  00000+0  51864-4 0  9998,2 45700  53.0556 108.0943 0001262  91.0882 269.0252 15.06402444304661
STARLINK-1403,45701,53.0552,0.0001234,15.06404958,546.341776287115,548.0509485609618,1 45701U 20035AW  25337.73690295  .00001328  00000+0  10804-3 0  9997,2 45701  53.0552 107.3679 0001234  89.3161 270.7969 15.06404958304683
STARLINK-1407,45703,53.0422,0.0009557,15.44649382,425.89965028712595,438.9173269340563,1 45703U 20035AY  25337.51467917  .00035044  00000+0  74483-3 0  9993,2 45703  53.0422  58.3214 0009557 159.3406 200.7987 15.44649382305360
STARLINK-1411,45706,53.0512,0.0001974,15.45078418,429.8035133223657,432.49181890854743,1 45706U 20035BB  25337.59361347  .00097106  00000+0  20052-2 0  9993,2 45706  53.0512  85.1808 0001974 340.5632  19.5298 15.45078418304985
STARLINK-1423,45710,53.0556,0.0001206,15.06387093,546.415914509952,548.0863181236082,1 45710U 20035BF  25337.63002951 -.00002395  00000+0 -14200-3 0  9993,2 45710  53.0556 107.8425 0001206 136.4252 223.6832 15.06387093304670
STARLINK-1433,45711,53.0553,0.0001294,15.06402173,546.3087587726495,548.1010372558558,1 45711U 20035BG  25337.67793147  .00000480  00000+0  51141-4 0  9999,2 45711  53.0553 107.6310 0001294  89.7871 270.3266 15.06402173304670
STARLINK-1434,45712,53.0485,0.0004383,15.17820815,509.407937974609,515.4482073172903,1 45712U 20035BH  25337.61686868  .00073812  00000+0  35828-2 0  9996,2 45712  53.0485 101.7054 0004383 164.2384 195.8747 15.17820815304769
STARLINK-1465,45731,53.0542,0.0001444,15.06389505,546.2436988119534,548.2437487649831,1 45731U 20038B   25337.64477253  .00012174  00000+0  83499-3 0  9991,2 45731  53.0542 307.7791 0001444  93.7044 266.4110 15.06389505301719
STARLINK-1471,45735,53.0502,0.0001675,15.4260331,437.28761260020383,439.5711623400075,1 45735U 20038F   25337.16007854  .00029102  00000+0  66570-3 0  9998,2 45735  53.0502 242.0731 0001675  92.8648 267.2549 15.42603310302607
STARLINK-1474,45738,53.0333,0.0003333,15.73455462,346.78777389369225,351.2721033749858,1 45738U 20038J   25337.30855735  .00107610  00000+0  75280-3 0  9995,2 45738  53.0333 191.9031 0003333 111.5053 248.6321 15.73455462303316
STARLINK-1475,45739,53.0372,0.0002448,16.03036585,264.3883981157778,267.6413748794066,1 45739U 20038K   25337.74961869  .00738134  27267-3  11844-2 0  9994,2 45739  53.0372 151.7795 0002448 289.4452  70.6314 16.03036585303922
STARLINK-1480,45741,53.0563,0.0001391,15.06392897,546.2700086832174,548.1966467083821,1 45741U 20038M   25337.29460689  .00001101  00000+0  92782-4 0  9992,2 45741  53.0563 309.3506 0001391  95.7549 264.3599 15.06392897301679
STARLINK-1500,45744,53.0405,0.000187,15.29318013,476.5677196476918,479.13185870684447,1 45744U 20038Q   25337.25852875  .00031133  00000+0  10879-2 0  9996,2 45744  53.0405 283.1877 0001870  19.8762 340.2309 15.29318013302030
STARLINK-1504,45746,53.0272,0.0003323,15.43482609,433.5759928804773,438.1045621791227,1 45746U 20038S   25337.17429321  .00050745  00000+0  11170-2 0  9990,2 45746  53.0272 245.0077 0003323  64.5415 295.5933 15.43482609302551
STARLINK-1506,45747,53.0663,0.0002495,15.22739201,495.8670841371868,499.2980682056959,1 45747U 20038T   25337.22326367  .00055634  00000+0  23499-2 0  9992,2 45747  53.0663 287.4374 0002495  11.9420 348.1635 15.22739201301976
STARLINK-1464,45751,53.0545,0.0001392,15.06423809,546.1745893816806,548.1025861053076,1 45751U 20038X   25337.76087038  .00019969  00000+0  13548-2 0  9990,2 45751  53.0545 287.2589 0001392  92.0090 268.1058 15.06423809302027
STARLINK-1477,45754,53.0533,0.0005749,15.08608728,536.4728893651327,544.4278811406966,1 45754U 20038AA  25337.28407301  .00043535  00000+0  27530-2 0  9991,2 45754  53.0533 289.1128 0005749  69.7264 290.4344 15.08608728301955
STARLINK-1478,45755,53.0537,0.000134,15.06412789,546.2443703180597,548.1003532270151,1 45755U 20038AB  25337.26328348  .00017945  00000+0  12201-2 0  9998,2 45755  53.0537 289.4889 0001340 111.0851 249.0281 15.06412789301939
STARLINK-1484,45756,53.0123,0.0002739,15.6786696,363.1590443124451,366.8529380430127,1 45756U 20038AC  25337.80374716  .00116596  00000+0  10285-2 0  9991,2 45756  53.0123 178.8076 0002739 134.8322 225.2916 15.67866960303539
